LANDSAT 9               
1 49260U 21088A   24255.76336257  .00001983  00000+0  45023-3 0  9994
2 49260  98.2247 324.2881 0001294  86.7755 273.3591 14.57098842157301
